IRIDIUM 106             
1 41917U 17003A   25300.41747854  .00000168  00000+0  52948-4 0  9999
2 41917  86.4031 185.7869 0001700  73.9344 286.2039 14.34218505459841
IRIDIUM 103             
1 41918U 17003B   25300.40478860  .00000311  00000+0  10385-3 0  9995
2 41918  86.4034 185.6927 0002390  75.0105 285.1355 14.34215451459861
IRIDIUM 109             
1 41919U 17003C   25300.20182641  .00000183  00000+0  58138-4 0  9999
2 41919  86.4034 185.8329 0002221  80.8704 279.2743 14.34215500459806
IRIDIUM 102             
1 41920U 17003D   25300.44919277  .00000182  00000+0  58057-4 0  9999
2 41920  86.4031 185.6585 0002113  86.9910 273.1528 14.34218526459921
IRIDIUM 105             
1 41921U 17003E   25300.35016637  .00000388  00000+0  13161-3 0  9992
2 41921  86.3994 154.2088 0002181  81.7190 278.4253 14.34219531461762
IRIDIUM 104             
1 41922U 17003F   25300.39211027  .00000223  00000+0  72529-4 0  9999
2 41922  86.4031 185.7211 0002460  83.9683 276.1793 14.34218266459905
IRIDIUM 114             
1 41923U 17003G   25300.39845404  .00000396  00000+0  13437-3 0  9995
2 41923  86.4031 185.7025 0002231  80.5051 279.6397 14.34218144459887
IRIDIUM 108             
1 41924U 17003H   25300.35697258  .00000152  00000+0  47054-4 0  9997
2 41924  86.3988 154.0989 0001928  89.9848 270.1569 14.34218353461731
